{"type": "FeatureCollection", "features": [ {"type": "Feature", "properties": {"norad_id": 66809, "name": "STARLINK-35979", "group": "last-30-days", "lat": -33.421508814153505, "lon": 48.42031407835275, "alt_km": 416.92871828669286, "timestamp": "2025-12-24T03:53:28.362084+00:00", "meta": {"OBJECT_NAME": "STARLINK-35979", "OBJECT_ID": "2025-278U", "EPOCH": "2025-12-23T20:00:01.000224", "MEAN_MOTION": 15.50514098, "ECCENTRICITY": 0.0001968, "INCLINATION": 42.9996, "RA_OF_ASC_NODE": 185.2559, "ARG_OF_PERICENTER": 266.5838, "MEAN_ANOMALY": 289.7962, "EPHEMERIS_TYPE": 0, "CLASSIFICATION_TYPE": "U", "NORAD_CAT_ID": 66809, "ELEMENT_SET_NO": 999, "REV_AT_EPOCH": 474, "BSTAR": 0.001028, "MEAN_MOTION_DOT": 0.00060291, "MEAN_MOTION_DDOT": 0}, "tle": {"line1": "1 66809U 25278U   25357.83334491  .00060291  00000+0  10280-2 0  9990", "line2": "2 66809  42.9996 185.2559 0001968 266.5838 289.7962 15.50514098  4743"}}, "geometry": {"type": "Point", "coordinates": [48.42031407835275, -33.421508814153505]}}, {"type": "Feature", "properties": {"norad_id": 66810, "name": "STARLINK-36046", "group": "last-30-days", "lat": -31.518169866501925, "lon": 44.498803607200095, "alt_km": 417.19121665499733, "timestamp": "2025-12-24T03:53:28.362095+00:00", "meta": {"OBJECT_NAME": "STARLINK-36046", "OBJECT_ID": "2025-278V", "EPOCH": "2025-12-23T20:00:01.000224", "MEAN_MOTION": 15.50506839, "ECCENTRICITY": 0.0001459, "INCLINATION": 42.9998, "RA_OF_ASC_NODE": 185.2678, "ARG_OF_PERICENTER": 269.5508, "MEAN_ANOMALY": 283.0058, "EPHEMERIS_TYPE": 0, "CLASSIFICATION_TYPE": "U", "NORAD_CAT_ID": 66810, "ELEMENT_SET_NO": 999, "REV_AT_EPOCH": 451, "BSTAR": 0.0010481, "MEAN_MOTION_DOT": 0.00061472, "MEAN_MOTION_DDOT": 0}, "tle": {"line1": "1 66810U 25278V   25357.83334491  .00061472  00000+0  10481-2 0  9997", "line2": "2 66810  42.9998 185.2678 0001459 269.5508 283.0058 15.50506839  4513"}}, "geometry": {"type": "Point", "coordinates": [44.498803607200095, -31.518169866501925]}}, {"type": "Feature", "properties": {"norad_id": 66811, "name": "STARLINK-36045", "group": "last-30-days", "lat": -32.48493232573798, "lon": 46.43845140094484, "alt_km": 417.0633710197517, "timestamp": "2025-12-24T03:53:28.362105+00:00", "meta": {"OBJECT_NAME": "STARLINK-36045", "OBJECT_ID": "2025-278W", "EPOCH": "2025-12-23T20:00:01.000224", "MEAN_MOTION": 15.50503454, "ECCENTRICITY": 0.0001648, "INCLINATION": 43, "RA_OF_ASC_NODE": 185.2625, "ARG_OF_PERICENTER": 265.0467, "MEAN_ANOMALY": 289.423, "EPHEMERIS_TYPE": 0, "CLASSIFICATION_TYPE": "U", "NORAD_CAT_ID": 66811, "ELEMENT_SET_NO": 999, "REV_AT_EPOCH": 474, "BSTAR": 0.0012572, "MEAN_MOTION_DOT": 0.00073913, "MEAN_MOTION_DDOT": 0}, "tle": {"line1": "1 66811U 25278W   25357.83334491  .00073913  00000+0  12572-2 0  9994", "line2": "2 66811  43.0000 185.2625 0001648 265.0467 289.4230 15.50503454  4744"}}, "geometry": {"type": "Point", "coordinates": [46.43845140094484, -32.48493232573798]}}, {"type": "Feature", "properties": {"norad_id": 66812, "name": "STARLINK-36054", "group": "last-30-days", "lat": -34.32753869331464, "lon": 50.45117952117421, "alt_km": 417.2693883588827, "timestamp": "2025-12-24T03:53:28.362115+00:00", "meta": {"OBJECT_NAME": "STARLINK-36054", "OBJECT_ID": "2025-278X", "EPOCH": "2025-12-23T20:00:01.000224", "MEAN_MOTION": 15.50515373, "ECCENTRICITY": 0.0001535, "INCLINATION": 42.9997, "RA_OF_ASC_NODE": 185.2524, "ARG_OF_PERICENTER": 273.2196, "MEAN_ANOMALY": 285.0765, "EPHEMERIS_TYPE": 0, "CLASSIFICATION_TYPE": "U", "NORAD_CAT_ID": 66812, "ELEMENT_SET_NO": 999, "REV_AT_EPOCH": 474, "BSTAR": 0.0010182, "MEAN_MOTION_DOT": 0.00059711, "MEAN_MOTION_DDOT": 0}, "tle": {"line1": "1 66812U 25278X   25357.83334491  .00059711  00000+0  10182-2 0  9990", "line2": "2 66812  42.9997 185.2524 0001535 273.2196 285.0765 15.50515373  4749"}}, "geometry": {"type": "Point", "coordinates": [50.45117952117421, -34.32753869331464]}}, {"type": "Feature", "properties": {"norad_id": 66813, "name": "STARLINK-36042", "group": "last-30-days", "lat": -35.19761194300603, "lon": 52.52011696974108, "alt_km": 417.3131373574606, "timestamp": "2025-12-24T03:53:28.362127+00:00", "meta": {"OBJECT_NAME": "STARLINK-36042", "OBJECT_ID": "2025-278Y", "EPOCH": "2025-12-23T20:00:01.000224", "MEAN_MOTION": 15.50498111, "ECCENTRICITY": 0.0001675, "INCLINATION": 42.9998, "RA_OF_ASC_NODE": 185.2473, "ARG_OF_PERICENTER": 277.7329, "MEAN_ANOMALY": 282.4979, "EPHEMERIS_TYPE": 0, "CLASSIFICATION_TYPE": "U", "NORAD_CAT_ID": 66813, "ELEMENT_SET_NO": 999, "REV_AT_EPOCH": 474, "BSTAR": 0.0011511, "MEAN_MOTION_DOT": 0.00067577, "MEAN_MOTION_DDOT": 0}, "tle": {"line1": "1 66813U 25278Y   25357.83334491  .00067577  00000+0  11511-2 0  9997", "line2": "2 66813  42.9998 185.2473 0001675 277.7329 282.4979 15.50498111  4744"}}, "geometry": {"type": "Point", "coordinates": [52.52011696974108, -35.19761194300603]}}, {"type": "Feature", "properties": {"norad_id": 66814, "name": "STARLINK-35984", "group": "last-30-days", "lat": -39.59817397251408, "lon": 65.884143467947, "alt_km": 417.39147307813255, "timestamp": "2025-12-24T03:53:28.362138+00:00", "meta": {"OBJECT_NAME": "STARLINK-35984", "OBJECT_ID": "2025-278Z", "EPOCH": "2025-12-23T20:00:01.000224", "MEAN_MOTION": 15.5050807, "ECCENTRICITY": 0.0001604, "INCLINATION": 42.9998, "RA_OF_ASC_NODE": 185.219, "ARG_OF_PERICENTER": 274.9586, "MEAN_ANOMALY": 296.773, "EPHEMERIS_TYPE": 0, "CLASSIFICATION_TYPE": "U", "NORAD_CAT_ID": 66814, "ELEMENT_SET_NO": 999, "REV_AT_EPOCH": 483, "BSTAR": 0.001058, "MEAN_MOTION_DOT": 0.00062064, "MEAN_MOTION_DDOT": 0}, "tle": {"line1": "1 66814U 25278Z   25357.83334491  .00062064  00000+0  10580-2 0  9999", "line2": "2 66814  42.9998 185.2190 0001604 274.9586 296.7730 15.50508070  4836"}}, "geometry": {"type": "Point", "coordinates": [65.884143467947, -39.59817397251408]}}, {"type": "Feature", "properties": {"norad_id": 66815, "name": "STARLINK-35985", "group": "last-30-days", "lat": -38.97150828164178, "lon": 63.541618598300126, "alt_km": 417.4202008675602, "timestamp": "2025-12-24T03:53:28.362148+00:00", "meta": {"OBJECT_NAME": "STARLINK-35985", "OBJECT_ID": "2025-278AA", "EPOCH": "2025-12-23T20:00:01.000224", "MEAN_MOTION": 15.50512852, "ECCENTRICITY": 0.0001508, "INCLINATION": 42.9998, "RA_OF_ASC_NODE": 185.2229, "ARG_OF_PERICENTER": 273.7252, "MEAN_ANOMALY": 296.0781, "EPHEMERIS_TYPE": 0, "CLASSIFICATION_TYPE": "U", "NORAD_CAT_ID": 66815, "ELEMENT_SET_NO": 999, "REV_AT_EPOCH": 483, "BSTAR": 0.00098398, "MEAN_MOTION_DOT": 0.00057674, "MEAN_MOTION_DDOT": 0}, "tle": {"line1": "1 66815U 25278AA  25357.83334491  .00057674  00000+0  98398-3 0  9995", "line2": "2 66815  42.9998 185.2229 0001508 273.7252 296.0781 15.50512852  4832"}}, "geometry": {"type": "Point", "coordinates": [63.541618598300126, -38.97150828164178]}}, {"type": "Feature", "properties": {"norad_id": 66816, "name": "STARLINK-36098", "group": "last-30-days", "lat": -36.03250600777772, "lon": 54.63605160592151, "alt_km": 417.2438368987041, "timestamp": "2025-12-24T03:53:28.362158+00:00", "meta": {"OBJECT_NAME": "STARLINK-36098", "OBJECT_ID": "2025-278AB", "EPOCH": "2025-12-23T20:00:01.000224", "MEAN_MOTION": 15.50501953, "ECCENTRICITY": 0.0001537, "INCLINATION": 42.9996, "RA_OF_ASC_NODE": 185.2421, "ARG_OF_PERICENTER": 262.5338, "MEAN_ANOMALY": 299.6053, "EPHEMERIS_TYPE": 0, "CLASSIFICATION_TYPE": "U", "NORAD_CAT_ID": 66816, "ELEMENT_SET_NO": 999, "REV_AT_EPOCH": 458, "BSTAR": 0.0011547, "MEAN_MOTION_DOT": 0.00067801, "MEAN_MOTION_DDOT": 0}, "tle": {"line1": "1 66816U 25278AB  25357.83334491  .00067801  00000+0  11547-2 0  9999", "line2": "2 66816  42.9996 185.2421 0001537 262.5338 299.6053 15.50501953  4581"}}, "geometry": {"type": "Point", "coordinates": [54.63605160592151, -36.03250600777772]}}, {"type": "Feature", "properties": {"norad_id": 66817, "name": "STARLINK-35995", "group": "last-30-days", "lat": -37.58551421056871, "lon": 58.9998811539444, "alt_km": 417.23639062325856, "timestamp": "2025-12-24T03:53:28.362170+00:00", "meta": {"OBJECT_NAME": "STARLINK-35995", "OBJECT_ID": "2025-278AC", "EPOCH": "2025-12-23T20:00:01.000224", "MEAN_MOTION": 15.50511038, "ECCENTRICITY": 0.000163, "INCLINATION": 42.9998, "RA_OF_ASC_NODE": 185.2334, "ARG_OF_PERICENTER": 266.3442, "MEAN_ANOMALY": 299.6188, "EPHEMERIS_TYPE": 0, "CLASSIFICATION_TYPE": "U", "NORAD_CAT_ID": 66817, "ELEMENT_SET_NO": 999, "REV_AT_EPOCH": 474, "BSTAR": 0.00117, "MEAN_MOTION_DOT": 0.00068733, "MEAN_MOTION_DDOT": 0}, "tle": {"line1": "1 66817U 25278AC  25357.83334491  .00068733  00000+0  11700-2 0  9996", "line2": "2 66817  42.9998 185.2334 0001630 266.3442 299.6188 15.50511038  4741"}}, "geometry": {"type": "Point", "coordinates": [58.9998811539444, -37.58551421056871]}}, {"type": "Feature", "properties": {"norad_id": 66818, "name": "STARLINK-35994", "group": "last-30-days", "lat": -36.82982267170847, "lon": 56.79794365123885, "alt_km": 417.3463837722293, "timestamp": "2025-12-24T03:53:28.362180+00:00", "meta": {"OBJECT_NAME": "STARLINK-35994", "OBJECT_ID": "2025-278AD", "EPOCH": "2025-12-23T20:00:01.000224", "MEAN_MOTION": 15.50511529, "ECCENTRICITY": 0.0001629, "INCLINATION": 42.9996, "RA_OF_ASC_NODE": 185.2374, "ARG_OF_PERICENTER": 277.8043, "MEAN_ANOMALY": 286.2495, "EPHEMERIS_TYPE": 0, "CLASSIFICATION_TYPE": "U", "NORAD_CAT_ID": 66818, "ELEMENT_SET_NO": 999, "REV_AT_EPOCH": 474, "BSTAR": 0.0010438, "MEAN_MOTION_DOT": 0.00061229, "MEAN_MOTION_DDOT": 0}, "tle": {"line1": "1 66818U 25278AD  25357.83334491  .00061229  00000+0  10438-2 0  9997", "line2": "2 66818  42.9996 185.2374 0001629 277.8043 286.2495 15.50511529  4744"}}, "geometry": {"type": "Point", "coordinates": [56.79794365123885, -36.82982267170847]}}]}